K04RE1W 14.4   0.15 K1014 113.51971  157.16456  164.26351    7.67259  0.4932354  0.05401211   6.9312034  3 MPO 89596    32   2 2004-2005 0.35 M-v 38h MPC        0000          2004 RW141         20051104
K04TG6S 20.4   0.15 K1014 302.69194   32.54209    4.60095    3.50760  0.5535870  0.16111107   3.3449205  5 MPO 74399    12   1   30 days 0.11 M-v 38h MPC        2006          2004 TS166         20041015
K04X50H 16.5   0.15 K1014 327.72572  265.70082  103.36187   57.13168  0.5785735  0.16006173   3.3595238  5 MPO102231    43   1  112 days 0.36 M-v 38h MPC        2006          2004 XH50          20050404
K05C16R 14.0   0.15 K1014 117.02723  313.21939  140.13115    9.38855  0.5089561  0.05795617   6.6130672  2 MPO132989    38   2 2003-2005 0.53 M-v 38h MPC        0000          2005 CR16          20050404
K05E36N 17.1   0.15 K1014   6.20989  190.93897  258.14629    7.03509  0.5036449  0.19507862   2.9443963  2 E2010-C38   102   2 2004-2010 0.44 M-v 38h MPC        0006          2005 EN36          20100208
K05E92Z 17.3   0.15 K1014 347.09235  134.64084  340.99618    3.64810  0.5193726  0.18756308   3.0225336  3 MPO166196    87   2 2005-2009 0.53 M-v 38h MPC        0006          2005 EZ92          20091121
K05H03L 14.4   0.15 K1014  44.33397  314.60341  238.66283   35.62402  0.8317818  0.02591282  11.3099209  1 MPO 87668    75   1  157 days 0.28 M-v 38h MPC        2000          2005 HL3           20050923
K05J03M 20.1   0.15 K1014 278.30895  189.90672   60.99632   19.47010  0.5986527  0.16692440   3.2668021  4 MPO 87669    63   1   63 days 0.52 M-v 38h MPC        2005          2005 JM3           20050705
K05K08L 16.0   0.15 K1014 281.23772  250.24369   85.04923   23.05981  0.5523918  0.17628196   3.1501469  0 MPO 95685    69   2 1999-2005 0.47 M-v 38h MPC        0006          2005 KL8           20051207
K05N07C 16.2   0.15 K1014 265.92989  201.68977  164.33692   13.97126  0.5128280  0.18953993   3.0014809  5 MPO 87695    28   1   89 days 0.36 M-v 38h MPC        2006          2005 NC7           20050921
K05N56A 16.9   0.15 K1014 356.34630   63.65107  131.09855    9.17065  0.5461356  0.18760623   3.0220701  6 MPO 87705    18   1   30 days 0.26 M-v 38h MPC        2005          2005 NA56          20050804
K05N82P 13.9   0.15 K1014  89.69224  254.45961  123.67816  130.59393  0.4795998  0.06913151   5.8796574  5 MPO 87709   112   1   79 days 0.53 M-v 38h MPC        2000          2005 NP82          20050923
K05O00E 13.7   0.15 K1014   3.46377  116.17999  153.16409   67.49159  0.9522089  0.00192275  64.0501970  1 MPO 90218   109   1   84 days 0.38 M-v 38h MPC        2011          2005 OE            20051008
K05QG6E 17.0   0.15 K1014 323.40343  234.32723  188.93763   12.94676  0.5266419  0.21558661   2.7545766  1 MPO100973   329   2 2002-2006 0.48 M-v 38h MPC        0005          2005 QE166         20060223
K05S25Y 21.2   0.15 K1014 338.87382  197.24049  211.26704    5.54244  0.5055368  0.22459481   2.6804203  8 MPO 87769    12   1    4 days 0.11 M-v 38h MPC        2005          2005 SY25          20051003
K05S26F 20.3   0.15 K1014 344.59676  145.69645  193.14655   21.82896  0.5099656  0.21628751   2.7486225  7 MPO 90253    42   1   13 days 0.53 M-v 38h MPC        2005          2005 SF26          20051012
K05SM3B 14.2   0.15 K1014   9.31026  252.56301  219.73252   91.48802  0.9059695  0.00616142  29.4678780  1 MPO104351    50   1  244 days 0.31 M-v 38h MPC        2000          2005 SB223         20060601
K05T00O 20.4   0.15 K1014 311.74182  204.97821  212.04720    2.16715  0.5239179  0.20698432   2.8303779  5 MPO 97845    67   1   59 days 0.41 M-v 38h MPC        2005          2005 TO            20051130
K05T50J 15.2   0.15 K1014  47.93868  211.77338  218.05930  110.37404  0.5882392  0.03535001   9.1948159  5 MPO 90319    48   1   31 days 0.31 M-v 38h MPC        2000          2005 TJ50          20051103
K05U06K 21.7   0.15 K1014 311.81503    8.78267   47.76405    3.63102  0.5274483  0.20618005   2.8377336  5 MPO 97873    34   1   24 days 0.24 M-v 38h MPC        2005          2005 UK6           20051121
K05UI7V 18.7   0.15 K1014 270.51520  108.52383  226.14803    6.92531  0.5388652  0.16384343   3.3076282  6 MPO 97913    13   1   16 days 0.18 M-v 38h MPC        2007          2005 UV187         20051112
K05Ug2X 17.6   0.15 K1014 285.78792  282.92274   46.20730   14.29050  0.5070755  0.16825713   3.2495289  5 MPO 97949    16   1   33 days 0.28 M-v 38h MPC        2007          2005 UX422         20051129
K05V03T 19.4   0.15 K1014 281.45128  169.46115  233.42569    9.77546  0.5300230  0.18590846   3.0404412  5 MPO 97960    29   1   32 days 0.49 M-v 38h MPC        2006          2005 VT3           20051204
K05V03X 14.1   0.15 K1014   0.05675  196.31087  255.23108  112.44141  0.9952262  0.00003898 861.5447302    MPO 97960    52   1   81 days 0.52 M-v 38h MPC        2011          2005 VX3           20060121
K05V05U 21.5   0.15 K1014 311.87384  173.15196  229.46196   27.25885  0.5200805  0.20401488   2.8577758  7 MPO 97960    23   1   12 days 0.42 M-v 38h MPC        2005          2005 VU5           20051122
K05W03Y 13.5   0.15 K1014  40.22368  309.19716  190.23779   29.41107  0.7347422  0.05653941   6.7230836  0 MPO159106   442   4 2005-2009 0.37 M-v 38h MPC        1000          2005 WY3           20090622
K05W54S 18.2   0.15 K1014 287.68023  322.21784   83.89261   31.57634  0.5241603  0.18365201   3.0652949  5 MPO 97989    31   1   42 days 0.60 M-v 38h MPC        2006          2005 WS54          20060109
K05X01Q 16.8   0.15 K1014 249.36409  325.21724  179.39031   32.12746  0.5740553  0.18112788   3.0937070  4 MPO102262    29   1  173 days 0.37 M-v 38h MPC        2005          2005 XQ1           20060526
K05X07Y 17.8   0.15 K1014 345.20747   86.20218  297.72264    4.41932  0.5176783  0.21781396   2.7357658  3 MPO160853    46   2 1996-2006 0.54 M-v 38h MPC        0005          2005 XY7           20060129
K05Y03W 14.9   0.15 K1014 225.21204   66.27321  116.07472   22.49886  0.5375692  0.17914439   3.1165007  3 MPO 96662    50   2 2001-2006 0.47 M-v 38h MPC        0006          2005 YW3           20060214
K05Y36W 17.8   0.15 K1014 290.79624  207.09592  189.37147   23.18918  0.5366628  0.20148425   2.8816550  4 MPO 98039    23   1   40 days 0.20 M-v 38h MPC        2005          2005 YW36          20060201
K05YK4R 16.7   0.15 K1014 225.49947   88.22423  120.53095   22.45526  0.5120758  0.17600411   3.1534613  4 MPO102267    37   1   96 days 0.52 M-v 38h MPC        2007          2005 YR204         20060331
K06B07V 19.5   0.15 K1014 211.99658  349.55469  139.61941   61.88317  0.5189728  0.14253197   3.6296203  6 MPO 98090    25   1   15 days 0.49 M-v 38h MPC        2000          2006 BV7           20060206
K06B08Z 14.2   0.15 K1014  42.47404   82.11230  183.50204  165.28224  0.8023555  0.03309268   9.6083344  0 MPO126750   333   3 2006-2007 0.48 M-v 38h MPC        0000          2006 BZ8           20071008
K06BK8F 14.5   0.15 K1014  76.64393   52.81310  156.11030   35.62037  0.4842590  0.06794949   5.9476478  1 MPO160860    45   3 1992-2007 0.49 M-v 38h MPC        0000          2006 BF208         20070421
K06D14M 17.4   0.15 K1014 316.23943  109.96875  317.56411   11.79731  0.5196276  0.19772192   2.9180955  3 MPO101333    49   2 2001-2006 0.47 M-v 38h MPC        0006          2006 DM14          20060224
K06D62T 17.6   0.15 K1014 239.62030  104.04600  130.38895   19.83559  0.5295499  0.18251988   3.0779574  3 MPO104370   101   1  145 days 0.52 M-v 38h MPC        2006          2006 DT62          20060719
K06D62V 20.2   0.15 K1014 311.11574   35.15477  156.88804   36.38306  0.5130991  0.22525763   2.6751596  6 MPO102292    45   1   27 days 0.49 M-v 38h MPC        2005          2006 DV62          20060324
K06E01A 19.7   0.15 K1014 246.16838  253.72636  305.30271   11.82432  0.5641725  0.18207095   3.0830149  8 MPO 98177    22   1    2 days 0.62 M-v 38h MPC        2005          2006 EA1           20060306
K06E01D 18.6   0.15 K1014 252.87669   37.86000  163.51505   32.87358  0.5401749  0.18291589   3.0735133  7 MPO102303    32   1   18 days 0.68 M-v 38h MPC        2006          2006 ED1           20060322
K06E52X 14.6   0.15 K1014   4.11464  163.35932  247.92068  150.25333  0.9392965  0.00356214  42.4615066  0 MPO121855   201   2 2006-2007 0.36 M-v 38h MPC        000F          2006 EX52          20070109
K06F04V 12.9   0.15 K1014  31.11990  217.73122   25.14928   32.01604  0.7002680  0.02753443  10.8613866  1 MPO124486   115   3 2005-2007 0.52 M-v 38h MPC        0000          2006 FV4           20070901
K06F51H 18.0   0.15 K1014 213.36274   75.26265  159.93625   10.60114  0.5474399  0.16104138   3.3458854  3 MPO104372    64   1   95 days 0.44 M-v 38h MPC        2006          2006 FH51          20060629
K06F51Z 17.0   0.15 K1014 208.12212  322.90092  304.82429    5.06477  0.5050460  0.16498984   3.2922887  4 MPO104372    39   1  117 days 0.37 M-v 38h MPC        2007          2006 FZ51          20060722
K06G00D 19.3   0.15 K1014 300.60850   14.13040  192.05372    7.62004  0.5049428  0.22249219   2.6972811  4 MPO102314    66   1   51 days 0.50 M-v 38h MPC        2005          2006 GD            20060523
K06H06D 21.7   0.15 K1014 294.37751  347.55028  199.17135   10.73744  0.5148011  0.21400695   2.7681151  9 MPO102319    16   1    2 days 0.53 M-v 38h MPC        2005          2006 HD6           20060421
K06J57G 12.4   0.15 K1014  44.77067  146.86594   75.84823   56.86924  0.5082630  0.03282073   9.6613360  2 MPO121857    46   3 2005-2007 0.40 M-v 38h MPC        0000          2006 JG57          20070708
K06L04X 17.1   0.15 K1014 223.07532   50.56536  276.97428   21.95127  0.5187119  0.18182551   3.0857887  2 MPO111172   263   1  135 days 0.33 M-v 38h MPC        2006          2006 LX4           20061024
K06Q39L 13.6   0.15 K1014  89.33229  253.94262  172.50574   13.35053  0.6004514  0.08506097   5.1205407  2 MPO140701   494   2 2006-2008 0.36 M-v 38h MPC        0000          2006 QL39          20080601
